[{"OBJECT_NAME":"YAM-7","OBJECT_ID":"2024-149AN","EPOCH":"2026-03-09T17:13:55.117920","MEAN_MOTION":15.30304554,"ECCENTRICITY":0.00019733,"INCLINATION":97.3828,"RA_OF_ASC_NODE":149.4631,"ARG_OF_PERICENTER":296.5121,"MEAN_ANOMALY":63.5918,"EPHEMERIS_TYPE":0,"CLASSIFICATION_TYPE":"U","NORAD_CAT_ID":60504,"ELEMENT_SET_NO":999,"REV_AT_EPOCH":8683,"BSTAR":0.00030984439,"MEAN_MOTION_DOT":9.009e-5,"MEAN_MOTION_DDOT":0},{"OBJECT_NAME":"STARLINK-32960","OBJECT_ID":"2025-048Q","EPOCH":"2026-03-09T01:23:28.749696","MEAN_MOTION":15.27593541,"ECCENTRICITY":0.00018214,"INCLINATION":43.0007,"RA_OF_ASC_NODE":89.0472,"ARG_OF_PERICENTER":278.7007,"MEAN_ANOMALY":81.3638,"EPHEMERIS_TYPE":0,"CLASSIFICATION_TYPE":"U","NORAD_CAT_ID":63197,"ELEMENT_SET_NO":999,"REV_AT_EPOCH":5699,"BSTAR":0.0010865891,"MEAN_MOTION_DOT":0.00029772,"MEAN_MOTION_DDOT":0}]
