YAM-7                   
1 60504U 24149AN  26068.71799904  .00009009  00000+0  30984-3 0  9997
2 60504  97.3828 149.4631 0001973 296.5121  63.5918 15.30304554 86835
STARLINK-32960          
1 63197U 25048Q   26068.05797164  .00029772  00000+0  10866-2 0  9995
2 63197  43.0007  89.0472 0001821 278.7007  81.3638 15.27593541 56995
